#dP2023  1 17 12  0  0.00000000      96 __u+U ITR00 EXT  IAC
## 2245 216000.00000000   900.00000000 59961 0.5000000000000
+  118   C06C07C09C10C11C12C13C14C16C19C20C21C22C23C24C25C26
+        C27C28C29C30C32C33C34C35C36C37C38C39C40C41C42C43C44
+        C45C46E01E02E03E04E05E07E08E09E10E11E12E13E14E15E18
+        E19E21E24E25E26E27E30E31E33E34E36G01G02G03G04G05G06
+        G07G08G09G10G11G12G13G14G15G16G17G18G19G20G21G22G23
+        G24G25G26G27G29G30G31G32J02J03J04R01R02R03R04R05R07
+        R08R09R11R12R13R14R15R16R17R18R19R20R21R22R24R25  0
++        10 10 10  9  8  6  9  9 10  9  7 10  7  8 10  9  8
++         8  8  8  9 10  8  7  6  9  8  8 11 11  9  9  9  8
++         8 10  8  8  7  5  7  7  7  6  7  7  8  7  8  8  6
++         6  7  8  8  7  8  8  8  7  6  8  6  6  5  6  6  6
++         7  6  6  6  6  6  7  7  7  6  7  7  7  7  6  6  7
++         7  6  6  6  7  6  7  7  9  9  9  9  9  9 10  8  9
++         7  8  7  7  6  8  8  7  9  7  9  8  9  5  7  7  0
%c M  cc GPS ccc cccc cccc cccc cccc ccccc ccccc ccccc ccccc
%c cc cc ccc ccc cccc cccc cccc cccc ccccc ccccc ccccc ccccc
%f  0.0000000  0.000000000  0.00000000000  0.000000000000000
%f  0.0000000  0.000000000  0.00000000000  0.000000000000000
%i    0    0    0    0      0      0      0      0         0
%i    0    0    0    0      0      0      0      0         0
/* IAC                                ULTRA-RAPID PREDICTION
/* S/V CLOCKS ARE ALIGNED TO GNSS TIME                      
/* G:C1WC2W R:C1PC2P E:C1XC5X C:C2IC6I J:C1CC2S             
/* PCV:IGS20_2239 OL/AL:FES2004  NONE     YN ORB:CoN CLK:CoN
*  2023 01 17 15 45  0.00000000
PC06 -12318.725718  23447.550840 -32849.953397   -186.000489
PC07 -13031.823511  39680.990985   5109.249795      2.427426
PC09  -3370.249906  24148.852442 -34027.296845    299.934412
PC10  -7870.642684  39859.970638  10543.489730     30.383526
PC11 -27765.533006   2115.570178  -1594.613382   -172.675625
PC12 -19880.749301  -9032.692079 -17328.942165    402.484683
PC13   6234.931008  35487.597910  22285.567210    185.565165
PC14 -17697.570902   6307.961542  20635.315603    378.300611
PC16 -14291.262697  22526.709254 -32544.425499     79.939906
PC19  17238.891210 -16190.960648 -14798.556257   -896.692678
PC20  15796.033660   2452.847744 -22862.904630    763.397661
PC21  -4644.942204 -21082.569886  17708.037133   -916.241584
PC22   8863.485421 -26381.955371   2184.136398   -680.881525
PC23  -1784.518543  20153.605027 -19228.480286   -871.896369
PC24 -21362.262984 -13914.874642 -11331.509551   -529.137840
PC25 -15807.990225   5962.461147 -22219.916640     56.982674
PC26 -15042.092156 -23074.743097   4329.350367    -65.652885
PC27  11741.023947  13436.519304  21435.109665     82.957916
PC28  -8389.363713  16023.133742  21258.064523     59.957878
PC29  24872.225682  -9905.546505  -7869.161155     68.677032
PC30  25789.151130   2768.427173  10259.857337      1.264983
PC32   4744.573021  21096.896577 -17621.625892   -647.580301
PC33 -17189.816423  16159.678433  14901.285117   -880.038576
PC34 -26297.687868  -1988.258963  -9170.627158     85.715560
PC35   9260.003121 -16272.526535 -20687.101218    527.974469
PC36  16368.511137  -4895.313876  22081.408567   -688.301934
PC37  13578.299461  23733.200014  -5650.490617   -845.139303
PC38  -5061.825513  29000.922785  30276.848891     52.564681
PC39 -20704.561412  21823.751923 -29600.148917     -1.463603
PC40 -20117.387282  36804.589129   2817.851732    -12.780738
PC41  -9188.682722  26304.477549  -1514.226148   -504.523477
PC42 -15393.343674  -3908.532871  22988.864225   -890.302184
PC43 -25301.187591   9428.878312   7096.747391      2.536762
PC44 -12079.668333 -13211.103085 -21425.184891    180.187359
PC45   1374.703579 -20287.336747  19091.918474    -48.731016
PC46  21428.223661  12499.426366  12816.033417    -27.081374
PE01   7273.589988 -24506.333296  14907.702610   -595.769451
PE02  -7040.746984  24774.990809 -14618.373078     15.262789
PE03 -16749.025506  22043.578204 -10473.470224   -640.853785
PE04  -1560.237438 -18902.681358  22726.189930    -38.203831
PE05 -25642.978214  12277.366339   8246.650186   -104.285778
PE07  19384.371453   4569.469369 -21897.566537    -15.882525
PE08   1413.215134  18845.027912 -22783.919717    -20.978511
PE09 -19172.798198  -4606.203985  22072.317646   -803.367695
PE10 -20987.520601 -17020.440940 -12080.173811   -505.749630
PE11 -26805.394160 -12435.980794  -1872.061510    499.866221
PE12 -12379.631924 -18700.179679 -19324.006826   -387.637044
PE13  26504.195254  12874.042709   2790.607961    429.864122
PE14 -16324.355805  15959.858220   6695.333812    116.045179
PE15  12070.866563  18625.069749  19592.942558    693.534310
PE18  15865.367099 -23669.402113 -15445.997953   -498.463010
PE19  18814.640739 -21353.334697   8124.944276  -3463.890810
PE21  15589.889705  -7592.978450  23982.720809   -506.797511
PE24 -15501.056413 -15865.410200 -19602.456675  -1063.148507
PE25 -15671.546371   7258.049019 -24040.578663   -597.383485
PE26  24860.194924  -1019.982068 -16024.853015  -1848.687704
PE27  15740.945107  14991.281115  20097.972416   -489.949296
PE30   6079.223803  28738.676224   3737.445024  -1167.836556
PE31  -6621.328358 -28502.004572  -4420.324164   -513.566779
PE33   9364.538716 -13340.680722 -24697.523129   -454.041257
PE34  -9169.342101  13450.095251  24722.671097    -25.314839
PE36 -25246.422077    360.208541  15465.211105   -491.811944
PG01 -21972.517160 -14682.721851  -4450.795015    223.290764
PG02  23792.587157  11378.323255   2452.249161   -626.741326
PG03 -12291.973470 -16537.882786  16700.787730   -371.593808
PG04 -16777.422080  -5862.944128  19777.118168    -46.831170
PG05   5821.243263  25487.796363  -4474.365755   -112.343416
PG06 -11495.536849  10219.177068  21734.589982    559.898985
PG07 -24612.998371  -5392.287273  -8710.811860    257.243242
PG08  -6434.124852 -13981.188312 -21667.907584   -104.034737
PG09 -22757.651855   4773.274183  12801.539963   -234.838523
PG10  11548.272006 -14826.678171 -18467.150780    -20.792199
PG11   1969.116719  17183.017546  20177.532867    -80.953802
PG12  10601.068194  18514.388536  15609.278734   -329.213909
PG13  -2464.127615  16817.640923 -20535.948359    460.928606
PG14 -13488.257376  12171.524833 -19327.505075    -47.464796
PG15   8656.280281  13658.181047 -21502.301657      5.427341
PG16   -611.282814 -26245.499556  -1931.886072   -523.557227
PG17 -23023.799622  13339.400502     75.290790    693.967769
PG18  23463.925452   2827.854331 -12260.053638   -102.825588
PG19 -17729.416605  16769.884536   9916.878312    265.355696
PG20     26.616709  25489.085862   7884.401087    456.477361
PG21 -18167.028340 -15813.018969 -11443.120053    153.504254
PG22  14156.639345 -18326.639497  13276.767155    407.855363
PG23  14782.024907  -2519.842234 -21915.737603      2.767391
PG24  20426.681020  15098.926151  -8807.391223    -34.031743
PG25  14806.185966   8886.923274  19946.293589    412.118659
PG26   5415.737582 -23232.279879  11202.950854    240.431998
PG27   5370.374633 -18600.138743 -18221.430669    124.769732
PG29  21957.613628   -752.403043  14933.793326   -580.941734
PG30 -18812.691172   5287.916066 -18007.568095   -533.019965
PG31  10457.624122 -11601.983624  21357.257414   -206.592912
PG32  20970.417179 -15992.564211   2174.466051   -367.026877
PJ02 -21114.166748  27492.887188 -19384.404918     -0.599618
PJ03 -28582.145982  24655.952988  23802.262450     -0.057189
PJ04 -29352.522194  29099.530397  14316.939833    119.171691
PR01   -879.913570 -16622.534346  19332.312726     21.405141
PR02 -12494.026533    129.950960  22292.308959    -23.319195
PR03 -16406.737683  15757.975150  11648.500999     71.008330
PR04 -11314.169571  22261.777386  -5219.576838    172.593666
PR05    -86.190569  16730.884189 -19255.118578    106.330031
PR07  16312.388379 -16269.878880 -10850.434493     48.172501
PR08  11008.560973 -22333.984954   5513.122691    -69.064763
PR09  15819.164392  12059.684449  15936.111013     99.063665
PR11   -602.079482 -18465.277955  17599.380844      5.453399
PR12 -11811.579511 -22589.329112    574.399378     24.382461
PR13 -15654.788859 -13745.424740 -14735.411812    -31.055124
PR14 -10110.645629   4711.614801 -22935.068526     24.228922
PR15   1085.606710  19158.694426 -16794.473085     91.649500
PR16  11868.467846  22544.897619   -905.358271     10.076785
PR17 -22515.664682   4144.369598  11225.814163    596.620982
PR18  -8812.274989   9450.814936  22024.226479     62.249264
PR19   7920.313469  10395.144006  21911.456394   -218.565103
PR20  23934.029716   5124.637124   7115.222118    -86.043025
PR21  21653.935956  -4649.823869 -12669.791080   -366.163035
PR22   8263.143127  -9695.009117 -22065.913116     67.019472
PR24 -24329.642268  -4212.183431  -6358.665299    140.251235
PR25  22919.484774  -3019.107416 -10792.965093     51.861514
EOF
